{"type": "FeatureCollection", "features": [ {"type": "Feature", "properties": {"norad_id": 31212, "name": "FENGYUN 1C DEB", "group": "fengyun-1c-debris", "lat": -42.181448238528574, "lon": -174.1217487808941, "alt_km": 814.6118772690388, "timestamp": "2025-12-08T23:34:04.250564+00:00", "meta": {"OBJECT_NAME": "FENGYUN 1C DEB", "OBJECT_ID": "1999-025BKS", "EPOCH": "2025-11-25T01:25:48.692640", "MEAN_MOTION": 14.12981607, "ECCENTRICITY": 0.00745379, "INCLINATION": 99.223, "RA_OF_ASC_NODE": 0.0078, "ARG_OF_PERICENTER": 220.8092, "MEAN_ANOMALY": 138.7482, "EPHEMERIS_TYPE": 0, "CLASSIFICATION_TYPE": "U", "NORAD_CAT_ID": 31212, "ELEMENT_SET_NO": 999, "REV_AT_EPOCH": 95409, "BSTAR": 0.0015990818, "MEAN_MOTION_DOT": 3.014e-05, "MEAN_MOTION_DDOT": 0}, "tle": {"line1": "1 31212U 99025BKS 25329.05959135  .00003014  00000+0  15991-2 0  9996", "line2": "2 31212  99.2230   0.0078 0074537 220.8092 138.7482 14.12981607954099"}}, "geometry": {"type": "Point", "coordinates": [-174.1217487808941, -42.181448238528574]}}, {"type": "Feature", "properties": {"norad_id": 31215, "name": "FENGYUN 1C DEB", "group": "fengyun-1c-debris", "lat": -73.52842511155434, "lon": -140.41379139208297, "alt_km": 754.6422912686958, "timestamp": "2025-12-08T23:34:04.250576+00:00", "meta": {"OBJECT_NAME": "FENGYUN 1C DEB", "OBJECT_ID": "1999-025BKV", "EPOCH": "2025-12-01T19:24:11.403648", "MEAN_MOTION": 14.33696459, "ECCENTRICITY": 0.00702274, "INCLINATION": 99.0744, "RA_OF_ASC_NODE": 179.3473, "ARG_OF_PERICENTER": 355.6358, "MEAN_ANOMALY": 4.4204, "EPHEMERIS_TYPE": 0, "CLASSIFICATION_TYPE": "U", "NORAD_CAT_ID": 31215, "ELEMENT_SET_NO": 999, "REV_AT_EPOCH": 96369, "BSTAR": 0.00097709666, "MEAN_MOTION_DOT": 2.74e-05, "MEAN_MOTION_DDOT": 0}, "tle": {"line1": "1 31215U 99025BKV 25335.80846532  .00002740  00000+0  97710-3 0  9990", "line2": "2 31215  99.0744 179.3473 0070227 355.6358   4.4204 14.33696459963691"}}, "geometry": {"type": "Point", "coordinates": [-140.41379139208297, -73.52842511155434]}}, {"type": "Feature", "properties": {"norad_id": 31217, "name": "FENGYUN 1C DEB", "group": "fengyun-1c-debris", "lat": -59.639800775150604, "lon": 6.017922256878177, "alt_km": 885.0535412724839, "timestamp": "2025-12-08T23:34:04.250588+00:00", "meta": {"OBJECT_NAME": "FENGYUN 1C DEB", "OBJECT_ID": "1999-025BKX", "EPOCH": "2025-12-08T12:00:02.793312", "MEAN_MOTION": 14.17524016, "ECCENTRICITY": 0.00994972, "INCLINATION": 98.6408, "RA_OF_ASC_NODE": 350.5032, "ARG_OF_PERICENTER": 172.1805, "MEAN_ANOMALY": 188.095, "EPHEMERIS_TYPE": 0, "CLASSIFICATION_TYPE": "U", "NORAD_CAT_ID": 31217, "ELEMENT_SET_NO": 999, "REV_AT_EPOCH": 96288, "BSTAR": 0.00097729779, "MEAN_MOTION_DOT": 2.04e-05, "MEAN_MOTION_DDOT": 0}, "tle": {"line1": "1 31217U 99025BKX 25342.50003233  .00002040  00000+0  97730-3 0  9995", "line2": "2 31217  98.6408 350.5032 0099497 172.1805 188.0950 14.17524016962886"}}, "geometry": {"type": "Point", "coordinates": [6.017922256878177, -59.639800775150604]}}, {"type": "Feature", "properties": {"norad_id": 31218, "name": "FENGYUN 1C DEB", "group": "fengyun-1c-debris", "lat": 4.628258573220303, "lon": -86.44459680599458, "alt_km": 661.4869165407263, "timestamp": "2025-12-08T23:34:04.250599+00:00", "meta": {"OBJECT_NAME": "FENGYUN 1C DEB", "OBJECT_ID": "1999-025BKY", "EPOCH": "2025-12-08T12:59:16.832256", "MEAN_MOTION": 14.72122214, "ECCENTRICITY": 0.00115762, "INCLINATION": 98.8407, "RA_OF_ASC_NODE": 92.3546, "ARG_OF_PERICENTER": 49.3091, "MEAN_ANOMALY": 310.9117, "EPHEMERIS_TYPE": 0, "CLASSIFICATION_TYPE": "U", "NORAD_CAT_ID": 31218, "ELEMENT_SET_NO": 999, "REV_AT_EPOCH": 97021, "BSTAR": 0.0054746486, "MEAN_MOTION_DOT": 0.00034609, "MEAN_MOTION_DDOT": 0}, "tle": {"line1": "1 31218U 99025BKY 25342.54116704  .00034609  00000+0  54746-2 0  9993", "line2": "2 31218  98.8407  92.3546 0011576  49.3091 310.9117 14.72122214970215"}}, "geometry": {"type": "Point", "coordinates": [-86.44459680599458, 4.628258573220303]}}, {"type": "Feature", "properties": {"norad_id": 31219, "name": "FENGYUN 1C DEB", "group": "fengyun-1c-debris", "lat": 71.77994219731818, "lon": -157.4988905005327, "alt_km": 831.208482399561, "timestamp": "2025-12-08T23:34:04.250609+00:00", "meta": {"OBJECT_NAME": "FENGYUN 1C DEB", "OBJECT_ID": "1999-025BKZ", "EPOCH": "2025-12-08T11:10:29.742528", "MEAN_MOTION": 14.13752894, "ECCENTRICITY": 0.00789844, "INCLINATION": 99.2851, "RA_OF_ASC_NODE": 352.1645, "ARG_OF_PERICENTER": 189.1751, "MEAN_ANOMALY": 170.7982, "EPHEMERIS_TYPE": 0, "CLASSIFICATION_TYPE": "U", "NORAD_CAT_ID": 31219, "ELEMENT_SET_NO": 999, "REV_AT_EPOCH": 95509, "BSTAR": 0.0022347754, "MEAN_MOTION_DOT": 4.308e-05, "MEAN_MOTION_DDOT": 0}, "tle": {"line1": "1 31219U 99025BKZ 25342.46562202  .00004308  00000+0  22348-2 0  9999", "line2": "2 31219  99.2851 352.1645 0078984 189.1751 170.7982 14.13752894955092"}}, "geometry": {"type": "Point", "coordinates": [-157.4988905005327, 71.77994219731818]}}, {"type": "Feature", "properties": {"norad_id": 31222, "name": "FENGYUN 1C DEB", "group": "fengyun-1c-debris", "lat": -59.025818300575125, "lon": -142.05292939476155, "alt_km": 691.020132226191, "timestamp": "2025-12-08T23:34:04.250619+00:00", "meta": {"OBJECT_NAME": "FENGYUN 1C DEB", "OBJECT_ID": "1999-025BLC", "EPOCH": "2025-12-08T03:16:10.885440", "MEAN_MOTION": 14.97675307, "ECCENTRICITY": 0.01705839, "INCLINATION": 98.6119, "RA_OF_ASC_NODE": 51.6392, "ARG_OF_PERICENTER": 84.5584, "MEAN_ANOMALY": 277.5067, "EPHEMERIS_TYPE": 0, "CLASSIFICATION_TYPE": "U", "NORAD_CAT_ID": 31222, "ELEMENT_SET_NO": 999, "REV_AT_EPOCH": 99915, "BSTAR": 0.00077172109, "MEAN_MOTION_DOT": 0.00012141, "MEAN_MOTION_DDOT": 0}, "tle": {"line1": "1 31222U 99025BLC 25342.13623710  .00012141  00000+0  77172-3 0  9999", "line2": "2 31222  98.6119  51.6392 0170583  84.5584 277.5067 14.97675307999156"}}, "geometry": {"type": "Point", "coordinates": [-142.05292939476155, -59.025818300575125]}}, {"type": "Feature", "properties": {"norad_id": 31223, "name": "FENGYUN 1C DEB", "group": "fengyun-1c-debris", "lat": 1.2855225583544598, "lon": 49.69333516906726, "alt_km": 1082.9950548060906, "timestamp": "2025-12-08T23:34:04.250629+00:00", "meta": {"OBJECT_NAME": "FENGYUN 1C DEB", "OBJECT_ID": "1999-025BLD", "EPOCH": "2025-12-08T12:15:47.210976", "MEAN_MOTION": 13.7721094, "ECCENTRICITY": 0.02419533, "INCLINATION": 99.0052, "RA_OF_ASC_NODE": 229.0428, "ARG_OF_PERICENTER": 51.9513, "MEAN_ANOMALY": 310.3205, "EPHEMERIS_TYPE": 0, "CLASSIFICATION_TYPE": "U", "NORAD_CAT_ID": 31223, "ELEMENT_SET_NO": 999, "REV_AT_EPOCH": 92670, "BSTAR": 0.0033282633, "MEAN_MOTION_DOT": 4.054e-05, "MEAN_MOTION_DDOT": 0}, "tle": {"line1": "1 31223U 99025BLD 25342.51096309  .00004054  00000+0  33283-2 0  9998", "line2": "2 31223  99.0052 229.0428 0241953  51.9513 310.3205 13.77210940926705"}}, "geometry": {"type": "Point", "coordinates": [49.69333516906726, 1.2855225583544598]}}, {"type": "Feature", "properties": {"norad_id": 31224, "name": "FENGYUN 1C DEB", "group": "fengyun-1c-debris", "lat": 46.614479149040164, "lon": -33.934933418820314, "alt_km": 857.6695029663433, "timestamp": "2025-12-08T23:34:04.250640+00:00", "meta": {"OBJECT_NAME": "FENGYUN 1C DEB", "OBJECT_ID": "1999-025BLE", "EPOCH": "2025-12-07T05:24:06.867936", "MEAN_MOTION": 14.28881555, "ECCENTRICITY": 0.01576901, "INCLINATION": 98.3695, "RA_OF_ASC_NODE": 333.3388, "ARG_OF_PERICENTER": 179.1537, "MEAN_ANOMALY": 197.3036, "EPHEMERIS_TYPE": 0, "CLASSIFICATION_TYPE": "U", "NORAD_CAT_ID": 31224, "ELEMENT_SET_NO": 999, "REV_AT_EPOCH": 69172, "BSTAR": 0.00051563663, "MEAN_MOTION_DOT": 1.444e-05, "MEAN_MOTION_DDOT": 0}, "tle": {"line1": "1 31224U 99025BLE 25341.22507949  .00001444  00000+0  51564-3 0  9996", "line2": "2 31224  98.3695 333.3388 0157690 179.1537 197.3036 14.28881555691727"}}, "geometry": {"type": "Point", "coordinates": [-33.934933418820314, 46.614479149040164]}}, {"type": "Feature", "properties": {"norad_id": 31225, "name": "FENGYUN 1C DEB", "group": "fengyun-1c-debris", "lat": -77.87465669075225, "lon": -171.29990678788312, "alt_km": 851.0722815360987, "timestamp": "2025-12-08T23:34:04.250650+00:00", "meta": {"OBJECT_NAME": "FENGYUN 1C DEB", "OBJECT_ID": "1999-025BLF", "EPOCH": "2025-12-07T04:07:31.353024", "MEAN_MOTION": 14.17816325, "ECCENTRICITY": 0.00882198, "INCLINATION": 98.9898, "RA_OF_ASC_NODE": 54.33, "ARG_OF_PERICENTER": 7.4861, "MEAN_ANOMALY": 21.4134, "EPHEMERIS_TYPE": 0, "CLASSIFICATION_TYPE": "U", "NORAD_CAT_ID": 31225, "ELEMENT_SET_NO": 999, "REV_AT_EPOCH": 95743, "BSTAR": 0.0019479029, "MEAN_MOTION_DOT": 4.087e-05, "MEAN_MOTION_DDOT": 0}, "tle": {"line1": "1 31225U 99025BLF 25341.17189066  .00004087  00000+0  19479-2 0  9991", "line2": "2 31225  98.9898  54.3300 0088219   7.4861  21.4134 14.17816325957436"}}, "geometry": {"type": "Point", "coordinates": [-171.29990678788312, -77.87465669075225]}}, {"type": "Feature", "properties": {"norad_id": 31226, "name": "FENGYUN 1C DEB", "group": "fengyun-1c-debris", "lat": -51.76441140005379, "lon": -6.287145533085718, "alt_km": 825.0457386436237, "timestamp": "2025-12-08T23:34:04.250660+00:00", "meta": {"OBJECT_NAME": "FENGYUN 1C DEB", "OBJECT_ID": "1999-025BLG", "EPOCH": "2025-12-06T17:57:16.149312", "MEAN_MOTION": 14.2667576, "ECCENTRICITY": 0.01264653, "INCLINATION": 98.3501, "RA_OF_ASC_NODE": 340.838, "ARG_OF_PERICENTER": 213.6965, "MEAN_ANOMALY": 145.613, "EPHEMERIS_TYPE": 0, "CLASSIFICATION_TYPE": "U", "NORAD_CAT_ID": 31226, "ELEMENT_SET_NO": 999, "REV_AT_EPOCH": 61968, "BSTAR": 0.00066349543, "MEAN_MOTION_DOT": 1.704e-05, "MEAN_MOTION_DDOT": 0}, "tle": {"line1": "1 31226U 99025BLG 25340.74810358  .00001704  00000+0  66350-3 0  9993", "line2": "2 31226  98.3501 340.8380 0126465 213.6965 145.6130 14.26675760619688"}}, "geometry": {"type": "Point", "coordinates": [-6.287145533085718, -51.76441140005379]}}]}